[{"OBJECT_NAME":"STARLINK-30208","OBJECT_ID":"2023-102M","EPOCH":"2026-03-09T22:00:01.999584","MEAN_MOTION":15.18316824,"ECCENTRICITY":0.00014024,"INCLINATION":42.9996,"RA_OF_ASC_NODE":246.5084,"ARG_OF_PERICENTER":264.9324,"MEAN_ANOMALY":100.8486,"EPHEMERIS_TYPE":0,"CLASSIFICATION_TYPE":"U","NORAD_CAT_ID":57415,"ELEMENT_SET_NO":999,"REV_AT_EPOCH":577,"BSTAR":0.005884723,"MEAN_MOTION_DOT":0.00124918,"MEAN_MOTION_DDOT":0},{"OBJECT_NAME":"CZ-6A DEB","OBJECT_ID":"2024-140ADS","EPOCH":"2026-03-09T14:05:09.302208","MEAN_MOTION":15.17885306,"ECCENTRICITY":0.0073653,"INCLINATION":89.0442,"RA_OF_ASC_NODE":281.8925,"ARG_OF_PERICENTER":121.24,"MEAN_ANOMALY":239.6089,"EPHEMERIS_TYPE":0,"CLASSIFICATION_TYPE":"U","NORAD_CAT_ID":64628,"ELEMENT_SET_NO":999,"REV_AT_EPOCH":8034,"BSTAR":0.0029018,"MEAN_MOTION_DOT":0.00063537,"MEAN_MOTION_DDOT":0}]
